{
  "type": "FeatureCollection",
  "features": [
    {
      "type": "Feature",
      "properties": {
        "norad_id": 33376,
        "name": "GALAXY 19 (G-19)",
        "group": "intelsat",
        "lat": -0.03181454597193593,
        "lon": -144.08431449705077,
        "alt_km": 35781.597391974596,
        "timestamp": "2025-12-27T14:26:30.184076+00:00",
        "meta_object_name": "GALAXY 19 (G-19)",
        "meta_object_id": "2008-045A",
        "meta_epoch": "2025-12-27T05:41:18.526272",
        "meta_mean_motion": 1.0027147,
        "meta_eccentricity": 0.00028557,
        "meta_inclination": 0.0364,
        "meta_ra_of_asc_node": 265.8723,
        "meta_arg_of_pericenter": 17.7954,
        "meta_mean_anomaly": 160.6281,
        "meta_ephemeris_type": 0,
        "meta_classification_type": "U",
        "meta_norad_cat_id": 33376,
        "meta_element_set_no": 999,
        "meta_rev_at_epoch": 6317,
        "meta_bstar": 0,
        "meta_mean_motion_dot": -1.17e-06,
        "meta_mean_motion_ddot": 0,
        "tle_line1": "1 33376U 08045A   25361.23701998 -.00000117  00000+0  00000+0 0  9993",
        "tle_line2": "2 33376   0.0364 265.8723 0002855  17.7954 160.6281  1.00271470 63176"
      },
      "geometry": {
        "type": "Point",
        "coordinates": [
          -144.08431449705077,
          -0.03181454597193593
        ]
      }
    },
    {
      "type": "Feature",
      "properties": {
        "norad_id": 35493,
        "name": "FM-5",
        "group": "intelsat",
        "lat": -0.019072337930632642,
        "lon": -133.21043681526743,
        "alt_km": 35785.452932474924,
        "timestamp": "2025-12-27T14:26:30.184089+00:00",
        "meta_object_name": "FM-5",
        "meta_object_id": "2009-034A",
        "meta_epoch": "2025-12-25T21:13:02.840160",
        "meta_mean_motion": 1.00269478,
        "meta_eccentricity": 7.9e-05,
        "meta_inclination": 0.0148,
        "meta_ra_of_asc_node": 303.8545,
        "meta_arg_of_pericenter": 217.7513,
        "meta_mean_anomaly": 165.1409,
        "meta_ephemeris_type": 0,
        "meta_classification_type": "U",
        "meta_norad_cat_id": 35493,
        "meta_element_set_no": 999,
        "meta_rev_at_epoch": 4490,
        "meta_bstar": 0,
        "meta_mean_motion_dot": -1.78e-06,
        "meta_mean_motion_ddot": 0,
        "tle_line1": "1 35493U 09034A   25359.88406065 -.00000178  00000+0  00000+0 0  9996",
        "tle_line2": "2 35493   0.0148 303.8545 0000790 217.7513 165.1409  1.00269478 44909"
      },
      "geometry": {
        "type": "Point",
        "coordinates": [
          -133.21043681526743,
          -0.019072337930632642
        ]
      }
    },
    {
      "type": "Feature",
      "properties": {
        "norad_id": 36097,
        "name": "INTELSAT 14 (IS-14)",
        "group": "intelsat",
        "lat": -0.025898563089214958,
        "lon": -92.06009064170928,
        "alt_km": 35775.290574784405,
        "timestamp": "2025-12-27T14:26:30.184100+00:00",
        "meta_object_name": "INTELSAT 14 (IS-14)",
        "meta_object_id": "2009-064A",
        "meta_epoch": "2025-12-27T02:30:53.463744",
        "meta_mean_motion": 1.00271432,
        "meta_eccentricity": 0.00026949,
        "meta_inclination": 0.0147,
        "meta_ra_of_asc_node": 44.1787,
        "meta_arg_of_pericenter": 240.036,
        "meta_mean_anomaly": 164.3491,
        "meta_ephemeris_type": 0,
        "meta_classification_type": "U",
        "meta_norad_cat_id": 36097,
        "meta_element_set_no": 999,
        "meta_rev_at_epoch": 5888,
        "meta_bstar": 0,
        "meta_mean_motion_dot": -2.51e-06,
        "meta_mean_motion_ddot": 0,
        "tle_line1": "1 36097U 09064A   25361.10478546 -.00000251  00000+0  00000+0 0  9993",
        "tle_line2": "2 36097   0.0147  44.1787 0002694 240.0360 164.3491  1.00271432 58883"
      },
      "geometry": {
        "type": "Point",
        "coordinates": [
          -92.06009064170928,
          -0.025898563089214958
        ]
      }
    },
    {
      "type": "Feature",
      "properties": {
        "norad_id": 36106,
        "name": "INTELSAT 15 (IS-15)",
        "group": "intelsat",
        "lat": 6.132606094038107e-05,
        "lon": 38.118804394256344,
        "alt_km": 35790.24676312586,
        "timestamp": "2025-12-27T14:26:30.184112+00:00",
        "meta_object_name": "INTELSAT 15 (IS-15)",
        "meta_object_id": "2009-067A",
        "meta_epoch": "2025-12-26T18:35:08.612736",
        "meta_mean_motion": 1.00269968,
        "meta_eccentricity": 0.00024632,
        "meta_inclination": 0.0172,
        "meta_ra_of_asc_node": 56.5413,
        "meta_arg_of_pericenter": 231.3991,
        "meta_mean_anomaly": 171.5093,
        "meta_ephemeris_type": 0,
        "meta_classification_type": "U",
        "meta_norad_cat_id": 36106,
        "meta_element_set_no": 999,
        "meta_rev_at_epoch": 3950,
        "meta_bstar": 0,
        "meta_mean_motion_dot": -1.63e-06,
        "meta_mean_motion_ddot": 0,
        "tle_line1": "1 36106U 09067A   25360.77440524 -.00000163  00000+0  00000+0 0  9996",
        "tle_line2": "2 36106   0.0172  56.5413 0002463 231.3991 171.5093  1.00269968 39509"
      },
      "geometry": {
        "type": "Point",
        "coordinates": [
          38.118804394256344,
          6.132606094038107e-05
        ]
      }
    },
    {
      "type": "Feature",
      "properties": {
        "norad_id": 36131,
        "name": "DIRECTV 12",
        "group": "intelsat",
        "lat": 0.017348632793580974,
        "lon": -149.75574524843185,
        "alt_km": 35786.09927899848,
        "timestamp": "2025-12-27T14:26:30.184124+00:00",
        "meta_object_name": "DIRECTV 12",
        "meta_object_id": "2009-075A",
        "meta_epoch": "2025-12-25T14:17:27.635136",
        "meta_mean_motion": 1.00273448,
        "meta_eccentricity": 5.26e-05,
        "meta_inclination": 0.0362,
        "meta_ra_of_asc_node": 165.2057,
        "meta_arg_of_pericenter": 147.3669,
        "meta_mean_anomaly": 253.4343,
        "meta_ephemeris_type": 0,
        "meta_classification_type": "U",
        "meta_norad_cat_id": 36131,
        "meta_element_set_no": 999,
        "meta_rev_at_epoch": 4481,
        "meta_bstar": 0,
        "meta_mean_motion_dot": -8.2e-07,
        "meta_mean_motion_ddot": 0,
        "tle_line1": "1 36131U 09075A   25359.59545874 -.00000082  00000+0  00000+0 0  9995",
        "tle_line2": "2 36131   0.0362 165.2057 0000526 147.3669 253.4343  1.00273448 44812"
      },
      "geometry": {
        "type": "Point",
        "coordinates": [
          -149.75574524843185,
          0.017348632793580974
        ]
      }
    },
    {
      "type": "Feature",
      "properties": {
        "norad_id": 36397,
        "name": "INTELSAT 16 (IS-16)",
        "group": "intelsat",
        "lat": -0.01946618465191989,
        "lon": -123.24899973467299,
        "alt_km": 35779.282370807385,
        "timestamp": "2025-12-27T14:26:30.184137+00:00",
        "meta_object_name": "INTELSAT 16 (IS-16)",
        "meta_object_id": "2010-006A",
        "meta_epoch": "2025-12-27T05:43:27.525792",
        "meta_mean_motion": 1.0027136,
        "meta_eccentricity": 0.00020579,
        "meta_inclination": 0.0093,
        "meta_ra_of_asc_node": 17.3806,
        "meta_arg_of_pericenter": 256.3438,
        "meta_mean_anomaly": 191.9297,
        "meta_ephemeris_type": 0,
        "meta_classification_type": "U",
        "meta_norad_cat_id": 36397,
        "meta_element_set_no": 999,
        "meta_rev_at_epoch": 5793,
        "meta_bstar": 0,
        "meta_mean_motion_dot": -2.22e-06,
        "meta_mean_motion_ddot": 0,
        "tle_line1": "1 36397U 10006A   25361.23851303 -.00000222  00000+0  00000+0 0  9992",
        "tle_line2": "2 36397   0.0093  17.3806 0002057 256.3438 191.9297  1.00271360 57934"
      },
      "geometry": {
        "type": "Point",
        "coordinates": [
          -123.24899973467299,
          -0.01946618465191989
        ]
      }
    },
    {
      "type": "Feature",
      "properties": {
        "norad_id": 37185,
        "name": "XM-5",
        "group": "intelsat",
        "lat": -0.05849473636960025,
        "lon": -162.22668005648404,
        "alt_km": 35779.83354856124,
        "timestamp": "2025-12-27T14:26:30.184149+00:00",
        "meta_object_name": "XM-5",
        "meta_object_id": "2010-053A",
        "meta_epoch": "2025-12-26T06:45:38.542176",
        "meta_mean_motion": 1.00272159,
        "meta_eccentricity": 0.0002039,
        "meta_inclination": 0.0641,
        "meta_ra_of_asc_node": 269.394,
        "meta_arg_of_pericenter": 243.8981,
        "meta_mean_anomaly": 287.9534,
        "meta_ephemeris_type": 0,
        "meta_classification_type": "U",
        "meta_norad_cat_id": 37185,
        "meta_element_set_no": 999,
        "meta_rev_at_epoch": 5575,
        "meta_bstar": 0,
        "meta_mean_motion_dot": -1e-08,
        "meta_mean_motion_ddot": 0,
        "tle_line1": "1 37185U 10053A   25360.28169609 -.00000001  00000+0  00000+0 0  9990",
        "tle_line2": "2 37185   0.0641 269.3940 0002039 243.8981 287.9534  1.00272159 55756"
      },
      "geometry": {
        "type": "Point",
        "coordinates": [
          -162.22668005648404,
          -0.05849473636960025
        ]
      }
    }
  ]
}